{"type": "FeatureCollection", "features": [ {"type": "Feature", "properties": {"norad_id": 41774, "name": "SKYSAT-C3", "group": "resource", "lat": 79.58836843355613, "lon": -29.073875882340054, "alt_km": 426.25575677280995, "timestamp": "2025-12-04T05:42:43.035314+00:00", "meta": {"OBJECT_NAME": "SKYSAT-C3", "OBJECT_ID": "2016-058E", "EPOCH": "2025-12-03T13:48:07.589376", "MEAN_MOTION": 15.4390114, "ECCENTRICITY": 0.00013882, "INCLINATION": 96.931, "RA_OF_ASC_NODE": 11.7512, "ARG_OF_PERICENTER": 101.7573, "MEAN_ANOMALY": 258.3832, "EPHEMERIS_TYPE": 0, "CLASSIFICATION_TYPE": "U", "NORAD_CAT_ID": 41774, "ELEMENT_SET_NO": 999, "REV_AT_EPOCH": 51584, "BSTAR": 0.00057340168, "MEAN_MOTION_DOT": 0.00026017, "MEAN_MOTION_DDOT": 0}, "tle": {"line1": "1 41774U 16058E   25337.57508784  .00026017  00000+0  57340-3 0  9994", "line2": "2 41774  96.9310  11.7512 0001388 101.7573 258.3832 15.43901140515846"}}, "geometry": {"type": "Point", "coordinates": [-29.073875882340054, 79.58836843355613]}}, {"type": "Feature", "properties": {"norad_id": 41785, "name": "ALSAT 1B", "group": "resource", "lat": -16.29643667617401, "lon": -7.314102451620956, "alt_km": 665.2944728534749, "timestamp": "2025-12-04T05:42:43.035324+00:00", "meta": {"OBJECT_NAME": "ALSAT 1B", "OBJECT_ID": "2016-059C", "EPOCH": "2025-12-03T23:15:40.298688", "MEAN_MOTION": 14.72060476, "ECCENTRICITY": 0.00104073, "INCLINATION": 97.7819, "RA_OF_ASC_NODE": 350.1374, "ARG_OF_PERICENTER": 128.6697, "MEAN_ANOMALY": 231.5443, "EPHEMERIS_TYPE": 0, "CLASSIFICATION_TYPE": "U", "NORAD_CAT_ID": 41785, "ELEMENT_SET_NO": 999, "REV_AT_EPOCH": 49185, "BSTAR": 0.00012547311, "MEAN_MOTION_DOT": 7.42e-06, "MEAN_MOTION_DDOT": 0}, "tle": {"line1": "1 41785U 16059C   25337.96921642  .00000742  00000+0  12547-3 0  9999", "line2": "2 41785  97.7819 350.1374 0010407 128.6697 231.5443 14.72060476491858"}}, "geometry": {"type": "Point", "coordinates": [-7.314102451620956, -16.29643667617401]}}, {"type": "Feature", "properties": {"norad_id": 41787, "name": "PATHFINDER 1", "group": "resource", "lat": -27.92259648415557, "lon": 157.2327690535296, "alt_km": 679.5605057730563, "timestamp": "2025-12-04T05:42:43.035334+00:00", "meta": {"OBJECT_NAME": "PATHFINDER 1", "OBJECT_ID": "2016-059E", "EPOCH": "2025-12-03T23:51:34.293024", "MEAN_MOTION": 14.6729787, "ECCENTRICITY": 0.00299645, "INCLINATION": 97.8138, "RA_OF_ASC_NODE": 341.1737, "ARG_OF_PERICENTER": 107.7101, "MEAN_ANOMALY": 252.7379, "EPHEMERIS_TYPE": 0, "CLASSIFICATION_TYPE": "U", "NORAD_CAT_ID": 41787, "ELEMENT_SET_NO": 999, "REV_AT_EPOCH": 49108, "BSTAR": 0.00027412585, "MEAN_MOTION_DOT": 1.51e-05, "MEAN_MOTION_DDOT": 0}, "tle": {"line1": "1 41787U 16059E   25337.99414691  .00001510  00000+0  27413-3 0  9997", "line2": "2 41787  97.8138 341.1737 0029964 107.7101 252.7379 14.67297870491086"}}, "geometry": {"type": "Point", "coordinates": [157.2327690535296, -27.92259648415557]}}, {"type": "Feature", "properties": {"norad_id": 41790, "name": "SCATSAT 1", "group": "resource", "lat": -25.752045771030243, "lon": -149.1606853963981, "alt_km": 613.7170553301694, "timestamp": "2025-12-04T05:42:43.035345+00:00", "meta": {"OBJECT_NAME": "SCATSAT 1", "OBJECT_ID": "2016-059H", "EPOCH": "2025-12-03T17:25:13.017504", "MEAN_MOTION": 14.78884432, "ECCENTRICITY": 0.00557995, "INCLINATION": 98.1479, "RA_OF_ASC_NODE": 34.2837, "ARG_OF_PERICENTER": 156.6391, "MEAN_ANOMALY": 203.7374, "EPHEMERIS_TYPE": 0, "CLASSIFICATION_TYPE": "U", "NORAD_CAT_ID": 41790, "ELEMENT_SET_NO": 999, "REV_AT_EPOCH": 7269, "BSTAR": 0.00037933954, "MEAN_MOTION_DOT": 2.812e-05, "MEAN_MOTION_DDOT": 0}, "tle": {"line1": "1 41790U 16059H   25337.72584511  .00002812  00000+0  37934-3 0  9996", "line2": "2 41790  98.1479  34.2837 0055799 156.6391 203.7374 14.78884432 72693"}}, "geometry": {"type": "Point", "coordinates": [-149.1606853963981, -25.752045771030243]}}, {"type": "Feature", "properties": {"norad_id": 41875, "name": "GOKTURK 1A", "group": "resource", "lat": 62.1895003918727, "lon": -145.03409566709874, "alt_km": 677.5362228254171, "timestamp": "2025-12-04T05:42:43.035355+00:00", "meta": {"OBJECT_NAME": "GOKTURK 1A", "OBJECT_ID": "2016-073A", "EPOCH": "2025-12-03T22:51:23.656896", "MEAN_MOTION": 14.6272895, "ECCENTRICITY": 0.00012254, "INCLINATION": 98.1431, "RA_OF_ASC_NODE": 230.4348, "ARG_OF_PERICENTER": 90.5478, "MEAN_ANOMALY": 269.5864, "EPHEMERIS_TYPE": 0, "CLASSIFICATION_TYPE": "U", "NORAD_CAT_ID": 41875, "ELEMENT_SET_NO": 999, "REV_AT_EPOCH": 48028, "BSTAR": 0.00021442402, "MEAN_MOTION_DOT": 1.046e-05, "MEAN_MOTION_DDOT": 0}, "tle": {"line1": "1 41875U 16073A   25337.95235714  .00001046  00000+0  21442-3 0  9994", "line2": "2 41875  98.1431 230.4348 0001225  90.5478 269.5864 14.62728950480286"}}, "geometry": {"type": "Point", "coordinates": [-145.03409566709874, 62.1895003918727]}}, {"type": "Feature", "properties": {"norad_id": 41877, "name": "RESOURCESAT-2A", "group": "resource", "lat": -67.9680310017031, "lon": 70.58618223660226, "alt_km": 826.3659612674755, "timestamp": "2025-12-04T05:42:43.035377+00:00", "meta": {"OBJECT_NAME": "RESOURCESAT-2A", "OBJECT_ID": "2016-074A", "EPOCH": "2025-12-03T23:16:57.201600", "MEAN_MOTION": 14.21593777, "ECCENTRICITY": 0.00011622, "INCLINATION": 98.7767, "RA_OF_ASC_NODE": 47.8769, "ARG_OF_PERICENTER": 298.8148, "MEAN_ANOMALY": 61.2912, "EPHEMERIS_TYPE": 0, "CLASSIFICATION_TYPE": "U", "NORAD_CAT_ID": 41877, "ELEMENT_SET_NO": 999, "REV_AT_EPOCH": 46656, "BSTAR": 0.0001768825, "MEAN_MOTION_DOT": 3.43e-06, "MEAN_MOTION_DDOT": 0}, "tle": {"line1": "1 41877U 16074A   25337.97010650  .00000343  00000+0  17688-3 0  9995", "line2": "2 41877  98.7767  47.8769 0001162 298.8148  61.2912 14.21593777466568"}}, "geometry": {"type": "Point", "coordinates": [70.58618223660226, -67.9680310017031]}}, {"type": "Feature", "properties": {"norad_id": 41948, "name": "CARTOSAT-2D", "group": "resource", "lat": -14.62359669131248, "lon": -146.08882464607922, "alt_km": 509.218985938106, "timestamp": "2025-12-04T05:42:43.035389+00:00", "meta": {"OBJECT_NAME": "CARTOSAT-2D", "OBJECT_ID": "2017-008A", "EPOCH": "2025-12-04T00:06:57.621312", "MEAN_MOTION": 15.19353382, "ECCENTRICITY": 0.00048626, "INCLINATION": 97.4402, "RA_OF_ASC_NODE": 35.6355, "ARG_OF_PERICENTER": 195.6689, "MEAN_ANOMALY": 164.4396, "EPHEMERIS_TYPE": 0, "CLASSIFICATION_TYPE": "U", "NORAD_CAT_ID": 41948, "ELEMENT_SET_NO": 999, "REV_AT_EPOCH": 48794, "BSTAR": 3.196892e-06, "MEAN_MOTION_DOT": 0, "MEAN_MOTION_DDOT": 0}, "tle": {"line1": "1 41948U 17008A   25338.00483358  .00000000  00000+0  31969-5 0  9996", "line2": "2 41948  97.4402  35.6355 0004862 195.6689 164.4396 15.19353382487940"}}, "geometry": {"type": "Point", "coordinates": [-146.08882464607922, -14.62359669131248]}}, {"type": "Feature", "properties": {"norad_id": 42063, "name": "SENTINEL-2B", "group": "resource", "lat": -22.516882790718434, "lon": 54.388270792860204, "alt_km": 794.7711042391174, "timestamp": "2025-12-04T05:42:43.035399+00:00", "meta": {"OBJECT_NAME": "SENTINEL-2B", "OBJECT_ID": "2017-013A", "EPOCH": "2025-12-03T23:06:17.614368", "MEAN_MOTION": 14.30810479, "ECCENTRICITY": 0.00011191, "INCLINATION": 98.5726, "RA_OF_ASC_NODE": 50.5316, "ARG_OF_PERICENTER": 98.0031, "MEAN_ANOMALY": 262.1279, "EPHEMERIS_TYPE": 0, "CLASSIFICATION_TYPE": "U", "NORAD_CAT_ID": 42063, "ELEMENT_SET_NO": 999, "REV_AT_EPOCH": 45672, "BSTAR": 0.00013119099, "MEAN_MOTION_DOT": 3e-06, "MEAN_MOTION_DDOT": 0}, "tle": {"line1": "1 42063U 17013A   25337.96270387  .00000300  00000+0  13119-3 0  9999", "line2": "2 42063  98.5726  50.5316 0001119  98.0031 262.1279 14.30810479456727"}}, "geometry": {"type": "Point", "coordinates": [54.388270792860204, -22.516882790718434]}}, {"type": "Feature", "properties": {"norad_id": 42767, "name": "CARTOSAT-2E", "group": "resource", "lat": 73.93389127838562, "lon": -117.01015941935371, "alt_km": 502.83240537672555, "timestamp": "2025-12-04T05:42:43.035410+00:00", "meta": {"OBJECT_NAME": "CARTOSAT-2E", "OBJECT_ID": "2017-036C", "EPOCH": "2025-12-03T22:55:53.108256", "MEAN_MOTION": 15.19178429, "ECCENTRICITY": 0.00022874, "INCLINATION": 97.4575, "RA_OF_ASC_NODE": 35.6568, "ARG_OF_PERICENTER": 283.6083, "MEAN_ANOMALY": 76.4897, "EPHEMERIS_TYPE": 0, "CLASSIFICATION_TYPE": "U", "NORAD_CAT_ID": 42767, "ELEMENT_SET_NO": 999, "REV_AT_EPOCH": 46850, "BSTAR": 0.00043615593, "MEAN_MOTION_DOT": 9.111e-05, "MEAN_MOTION_DDOT": 0}, "tle": {"line1": "1 42767U 17036C   25337.95547579  .00009111  00000+0  43616-3 0  9998", "line2": "2 42767  97.4575  35.6568 0002287 283.6083  76.4897 15.19178429468508"}}, "geometry": {"type": "Point", "coordinates": [-117.01015941935371, 73.93389127838562]}}, {"type": "Feature", "properties": {"norad_id": 42920, "name": "FORMOSAT-5", "group": "resource", "lat": 79.00430817486377, "lon": 4.448878611405874, "alt_km": 718.5341937115063, "timestamp": "2025-12-04T05:42:43.035421+00:00", "meta": {"OBJECT_NAME": "FORMOSAT-5", "OBJECT_ID": "2017-049A", "EPOCH": "2025-12-03T21:03:26.443296", "MEAN_MOTION": 14.50997002, "ECCENTRICITY": 0.00102922, "INCLINATION": 98.2462, "RA_OF_ASC_NODE": 52.3719, "ARG_OF_PERICENTER": 325.1836, "MEAN_ANOMALY": 34.8685, "EPHEMERIS_TYPE": 0, "CLASSIFICATION_TYPE": "U", "NORAD_CAT_ID": 42920, "ELEMENT_SET_NO": 999, "REV_AT_EPOCH": 43835, "BSTAR": 0.00013803205, "MEAN_MOTION_DOT": 5.02e-06, "MEAN_MOTION_DDOT": 0}, "tle": {"line1": "1 42920U 17049A   25337.87738939  .00000502  00000+0  13803-3 0  9996", "line2": "2 42920  98.2462  52.3719 0010292 325.1836  34.8685 14.50997002438353"}}, "geometry": {"type": "Point", "coordinates": [4.448878611405874, 79.00430817486377]}}]}